IRIDIUM 150             
1 43257U 18030J   25359.49429766  .00000269  00000+0  89092-4 0  9992
2 43257  86.3966   3.0751 0002372  90.6231 269.5237 14.34219631405267
IRIDIUM 143             
1 43258U 18030K   25359.54503281  .00000270  00000+0  89240-4 0  9991
2 43258  86.3970   3.1396 0002441  90.0620 270.0855 14.34218177405203
IRIDIUM 161             
1 43478U 18047C   25359.70323149  .00000383  00000+0  10789-3 0  9990
2 43478  86.4511 160.9669 0001791  90.6522 269.4884 14.43280405400110
IRIDIUM 152             
1 43479U 18047D   25359.51775610  .00000251  00000+0  82555-4 0  9999
2 43479  86.3981 160.9031 0001550  84.8436 275.2936 14.34210274397593
IRIDIUM 147             
1 43480U 18047E   25359.45431764  .00000189  00000+0  60343-4 0  9994
2 43480  86.3959 160.9313 0002030  86.6265 273.5163 14.34209329397588
IRIDIUM 160             
1 43569U 18061A   25359.75535220 -.00000085  00000+0 -37503-4 0  9992
2 43569  86.3989 129.3155 0001843  90.5392 269.6015 14.34217466388514
